	<Item MEAN_ANOMALY="91.793000000000006"/>
	<Item MEAN_MOTION="14.312900000000001"/>
	<Item Nation="8"/>
	<Item FlatType="2"/>
	<Item Mission="4"/>
	<Item SecretRank="0"/>
	<Item Apogee="844.000000000000000"/>
	<Item SatIconName="1.png#1.png"/>
	<Item SatModelName="北斗导航试验卫星"/>
</SateliteInfo>
<SateliteInfo>
	<Item ID="127"/>
	<Item NAME="00127"/>
	<Item TLE="1 00127U 61015M   10109.14995237  .00000357  00000-0  15543-3 0  8832 2 00127  66.8352  40.2445 0078861 189.0004 170.9662 14.33132839517789"/>
	<Item INCLINATION="66.835200000000000"/>
	<Item RAAN="40.244500000000002"/>
	<Item ECCENTRICITY="0.007886100000000"/>
	<Item PERIGEE="189.000000000000000"/>
	<Item MEAN_ANOMALY="170.966000000000010"/>
	<Item MEAN_MOTION="14.331300000000001"/>
	<Item Nation="1"/>
	<Item FlatType="1"/>
	<Item Mission="1"/>
	<Item SecretRank="0"/>
	<Item Apogee="837.000000000000000"/>
	<Item SatIconName="1.png#1.png"/>
	<Item SatModelName="北斗导航试验卫星"/>
</SateliteInfo>
<SateliteInfo>
	<Item ID="128"/>
	<Item NAME="00128"/>
	<Item TLE="1 00128U 61015N   10109.13805353 -.00000022  00000-0  37368-4 0  1564 2 00128  66.6794 159.4047 0089958  39.9036 320.8617 14.00518358488529"/>
	<Item INCLINATION="66.679400000000001"/>
	<Item RAAN="159.405000000000000"/>
	<Item ECCENTRICITY="0.008995800000000"/>
	<Item PERIGEE="39.903599999999997"/>
	<Item MEAN_ANOMALY="320.862000000000020"/>
	<Item MEAN_MOTION="14.005200000000000"/>
	<Item Nation="2"/>
	<Item FlatType="2"/>
	<Item Mission="2"/>
	<Item SecretRank="0"/>
	<Item Apogee="957.000000000000000"/>
	<Item SatIconName="1.png#1.png"/>
	<Item SatModelName="北斗导航试验卫星"/>
</SateliteInfo>
<SateliteInfo>
	<Item ID="130"/>
	<Item NAME="00130"/>
	<Item TLE="1 00130U 61015Q   10108.60521945 -.00000001  00000-0  52679-4 0  4247 2 00130  66.7712 114.3535 0079814 111.6907 249.2690 13.98117313486402"/>
	<Item INCLINATION="66.771199999999993"/>
	<Item RAAN="114.352999999999990"/>
	<Item ECCENTRICITY="0.007981400000000"/>
	<Item PERIGEE="111.691000000000000"/>
	<Item MEAN_ANOMALY="249.269000000000010"/>
	<Item MEAN_MOTION="13.981199999999999"/>
	<Item Nation="3"/>
	<Item FlatType="1"/>
	<Item Mission="3"/>
	<Item SecretRank="0"/>
	<Item Apogee="958.000000000000000"/>
	<Item SatIconName="1.png#1.png"/>
	<Item SatModelName="北斗导航试验卫星"/>
</SateliteInfo>
<SateliteInfo>
	<Item ID="131"/>
	<Item NAME="00131"/>
	<Item TLE="1 00131U 61015R   10108.85558259  .00000002  00000-0  53852-4 0  4720 2 00131  66.7332  34.3464 0087729 223.9412 135.4675 13.99802137477231"/>
	<Item INCLINATION="66.733199999999997"/>
	<Item RAAN="34.346400000000003"/>
	<Item ECCENTRICITY="0.008772900000000"/>
	<Item PERIGEE="223.941000000000000"/>
	<Item MEAN_ANOMALY="135.467999999999990"/>
	<Item MEAN_MOTION="13.997999999999999"/>
	<Item Nation="4"/>
	<Item FlatType="2"/>
	<Item Mission="4"/>
	<Item SecretRank="0"/>
	<Item Apogee="958.000000000000000"/>
	<Item SatIconName="1.png#1.png"/>
	<Item SatModelName="北斗导航试验卫星"/>
</SateliteInfo>
<SateliteInfo>
	<Item ID="132"/>
	<Item NAME="00132"/>
	<Item TLE="1 00132U 61015S   10107.69231721 -.00000028  00000-0  36926-4 0  4456 2 00132  66.6633 155.3501 0079984 215.2834 144.2958 13.93947697481037"/>
	<Item INCLINATION="66.663300000000007"/>
	<Item RAAN="155.349999999999990"/>
	<Item ECCENTRICITY="0.007998400000000"/>
	<Item PERIGEE="215.282999999999990"/>
	<Item MEAN_ANOMALY="144.295999999999990"/>
	<Item MEAN_MOTION="13.939500000000001"/>
	<Item Nation="5"/>
	<Item FlatType="1"/>
	<Item Mission="1"/>
	<Item SecretRank="0"/>
	<Item Apogee="973.000000000000000"/>
	<Item SatIconName="1.png#1.png"/>
	<Item SatModelName="北斗导航试验卫星"/>
</SateliteInfo>
<SateliteInfo>
	<Item ID="133"/>
	<Item NAME="00133"/>
	<Item TLE="1 00133U 61015T   10108.73860913  .00000295  00000-0  19113-3 0  3197 2 00133  67.1213 343.3108 0052385 154.1434 206.2282 14.14814305497021"/>
	<Item INCLINATION="67.121300000000005"/>
	<Item RAAN="343.310999999999980"/>
	<Item ECCENTRICITY="0.005238500000000"/>
	<Item PERIGEE="154.143000000000000"/>
	<Item MEAN_ANOMALY="206.228000000000010"/>
	<Item MEAN_MOTION="14.148099999999999"/>
	<Item Nation="6"/>
	<Item FlatType="2"/>
	<Item Mission="2"/>
	<Item SecretRank="0"/>
	<Item Apogee="880.000000000000000"/>
	<Item SatIconName="1.png#1.png"/>
	<Item SatModelName="北斗导航试验卫星"/>
</SateliteInfo>
<SateliteInfo>
	<Item ID="134"/>
	<Item NAME="00134"/>
	<Item TLE="1 00134U 61015U   10107.69328085 -.00000006  00000-0  50127-4 0  4734 2 00134  66.8815 160.3002 0077641 130.4601 230.3297 13.96067299481579"/>
	<Item INCLINATION="66.881500000000003"/>
	<Item RAAN="160.300000000000010"/>
	<Item ECCENTRICITY="0.007764100000000"/>
	<Item PERIGEE="130.460000000000010"/>
	<Item MEAN_ANOMALY="230.330000000000010"/>
	<Item MEAN_MOTION="13.960699999999999"/>
	<Item Nation="7"/>
	<Item FlatType="1"/>
	<Item Mission="3"/>
	<Item SecretRank="0"/>
	<Item Apogee="963.000000000000000"/>
	<Item SatIconName="1.png#1.png"/>
	<Item SatModelName="北斗导航试验卫星"/>
</SateliteInfo>
<SateliteInfo>
	<Item ID="136"/>
	<Item NAME="00136"/>
	<Item TLE="1 00136U 61015W   10107.64467657  .00000489  00000-0  22167-3 0  8178 2 00136  67.5293 164.5719 0064471 314.9598  44.6286 14.28380039511159"/>
	<Item INCLINATION="67.529300000000006"/>
	<Item RAAN="164.572000000000000"/>
	<Item ECCENTRICITY="0.006447100000000"/>
	<Item PERIGEE="314.959999999999980"/>
	<Item MEAN_ANOMALY="44.628599999999999"/>
	<Item MEAN_MOTION="14.283799999999999"/>
	<Item Nation="8"/>
	<Item FlatType="2"/>
	<Item Mission="4"/>
	<Item SecretRank="0"/>
	<Item Apogee="843.000000000000000"/>
	<Item SatIconName="1.png#1.png"/>
	<Item SatModelName="北斗导航试验卫星"/>
</SateliteInfo>
<SateliteInfo>
	<Item ID="138"/>
	<Item NAME="00138"/>
	<Item TLE="1 00138U 61015Y   10108.66322238 -.00000057  00000-0  12999-4 0  2874 2 00138  67.1545 161.4359 0028980  38.6062 321.7095 13.99270937476041"/>
	<Item INCLINATION="67.154499999999999"/>
	<Item RAAN="161.436000000000010"/>
	<Item ECCENTRICITY="0.002898000000000"/>
	<Item PERIGEE="38.606200000000001"/>
	<Item MEAN_ANOMALY="321.709000000000000"/>
	<Item MEAN_MOTION="13.992699999999999"/>
	<Item Nation="1"/>
	<Item FlatType="1"/>
	<Item Mission="1"/>
	<Item SecretRank="0"/>
	<Item Apogee="917.000000000000000"/>
	<Item SatIconName="1.png#1.png"/>
	<Item SatModelName="北斗导航试验卫星"/>
</SateliteInfo>
<SateliteInfo>
	<Item ID="141"/>
	<Item NAME="00141"/>
	<Item TLE="1 00141U 61015AB  10108.09771869  .00000092  00000-0  14711-3 0  3909 2 00141  66.5835  82.2077 0064229 292.6157  66.8133 13.85012038453596"/>
	<Item INCLINATION="66.583500000000001"/>
	<Item RAAN="82.207700000000003"/>
	<Item ECCENTRICITY="0.006422900000000"/>
	<Item PERIGEE="292.615999999999990"/>
	<Item MEAN_ANOMALY="66.813299999999998"/>
	<Item MEAN_MOTION="13.850099999999999"/>
	<Item Nation="2"/>
	<Item FlatType="2"/>
	<Item Mission="2"/>
	<Item SecretRank="0"/>
	<Item Apogee="993.000000000000000"/>
	<Item SatIconName="1.png#1.png"/>
	<Item SatModelName="北斗导航试验卫星"/>
</SateliteInfo>
<SateliteInfo>
	<Item ID="144"/>
	<Item NAME="00144"/>
	<Item TLE="1 00144U 61015AE  10108.36704020  .00000066  00000-0  11860-3 0  3911 2 00144  66.5049 196.8416 0042937 174.3732 185.7794 13.88721449464673"/>
	<Item INCLINATION="66.504900000000006"/>
	<Item RAAN="196.842000000000010"/>
	<Item ECCENTRICITY="0.004293700000000"/>
	<Item PERIGEE="174.372999999999990"/>
	<Item MEAN_ANOMALY="185.779000000000000"/>
	<Item MEAN_MOTION="13.887200000000000"/>
	<Item Nation="3"/>
	<Item FlatType="1"/>
	<Item Mission="3"/>
	<Item SecretRank="0"/>
	<Item Apogee="964.000000000000000"/>
	<Item SatIconName="1.png#1.png"/>
	<Item SatModelName="北斗导航试验卫星"/>
</SateliteInfo>
<SateliteInfo>
	<Item ID="145"/>
	<Item NAME="00145"/>
	<Item TLE="1 00145U 61015AF  10108.70858656 -.00000021  00000-0  37843-4 0  8530 2 00145  66.9272 213.4106 0069065 313.1244  46.4075 13.99799213490120"/>
	<Item INCLINATION="66.927199999999999"/>
	<Item RAAN="213.411000000000000"/>
	<Item ECCENTRICITY="0.006906500000000"/>
	<Item PERIGEE="313.124000000000020"/>
	<Item MEAN_ANOMALY="46.407499999999999"/>
	<Item MEAN_MOTION="13.997999999999999"/>
	<Item Nation="4"/>
	<Item FlatType="2"/>
	<Item Mission="4"/>
	<Item SecretRank="0"/>
	<Item Apogee="944.000000000000000"/>
	<Item SatIconName="1.png#1.png"/>
	<Item SatModelName="北斗导航试验卫星"/>
</SateliteInfo>
<SateliteInfo>
	<Item ID="147"/>
	<Item NAME="00147"/>
	<Item TLE="1 00147U 61015AH  10109.19878426  .00000330  00000-0  20745-3 0  7963 2 00147  66.6155  91.6548 0062004 221.0506 138.5909 14.15555060497528"/>
	<Item INCLINATION="66.615499999999997"/>
	<Item RAAN="91.654799999999994"/>
	<Item ECCENTRICITY="0.006200400000000"/>
	<Item PERIGEE="221.050999999999990"/>
	<Item MEAN_ANOMALY="138.591000000000010"/>
	<Item MEAN_MOTION="14.155600000000000"/>
	<Item Nation="5"/>
	<Item FlatType="1"/>
	<Item Mission="1"/>
	<Item SecretRank="0"/>
	<Item Apogee="885.000000000000000"/>
	<Item SatIconName="1.png#1.png"/>
	<Item SatModelName="北斗导航试验卫星"/>
</SateliteInfo>
<SateliteInfo>
	<Item ID="148"/>
	<Item NAME="00148"/>
	<Item TLE="1 00148U 61015AJ  10108.72625757  .00000507  00000-0  35478-3 0  2419 2 00148  65.7802  23.3896 0144607  70.1337 291.5288 14.02037957929886"/>
	<Item INCLINATION="65.780199999999994"/>
	<Item RAAN="23.389600000000002"/>
	<Item ECCENTRICITY="0.014460700000000"/>
	<Item PERIGEE="70.133700000000005"/>
	<Item MEAN_ANOMALY="291.529000000000000"/>
	<Item MEAN_MOTION="14.020400000000000"/>
	<Item Nation="6"/>
	<Item FlatType="2"/>
	<Item Mission="2"/>
	<Item SecretRank="0"/>
	<Item Apogee="991.000000000000000"/>
	<Item SatIconName="1.png#1.png"/>
	<Item SatModelName="北斗导航试验卫星"/>
</SateliteInfo>
<SateliteInfo>
	<Item ID="152"/>
	<Item NAME="00152"/>
